[
    {
        "Altitude(m)": 605470.7877868843,
        "Argument of Periapsis(deg)": 0.0,
        "Eccentricity": 0.0,
        "Inclination(deg)": 60.0,
        "Latitude(deg)": 27.988198967135318,
        "Longitude(deg)": 47.26289873337817,
        "Mean Anomaly(deg)": -212.72729999999999,
        "RAAN(deg)": 345.0,
        "Satellite Name": "Test1 1527",
        "Satellite Number": 1527,
        "Semi-Major Axis(m)": 6980739.136638005,
        "Time(s)": 0
    },
    {
        "Altitude(m)": 605395.8258696542,
        "Argument of Periapsis(deg)": 0.00010418945913296404,
        "Eccentricity": 0.0,
        "Inclination(deg)": 60.0,
        "Latitude(deg)": 27.47389022900319,
        "Longitude(deg)": 47.61608753136146,
        "Mean Anomaly(deg)": -212.1071938545382,
        "RAAN(deg)": 344.99957995086027,
        "Satellite Name": "Test1 1527",
        "Satellite Number": 1527,
        "Semi-Major Axis(m)": 6980739.136638005,
        "Time(s)": 10
    }
]